#cP2022 11  9  0  0  0.00000000      96 ORBIT IGb14 HLM  IGS
## 2235 259200.00000000   900.00000000 59892 0.0000000000000
+   31   G01G02G03G04G05G06G07G08G09G10G11G12G13G14G15G16G17
+        G18G19G20G21G22G23G24G25G26G27G29G30G31G32  0  0  0
+          0  0  0  0  0  0  0  0  0  0  0  0  0  0  0  0  0
+          0  0  0  0  0  0  0  0  0  0  0  0  0  0  0  0  0
+          0  0  0  0  0  0  0  0  0  0  0  0  0  0  0  0  0
++         2  2  2  3  2  2  2  2  2  2  3  2  2  3  2  2  2
++         3  2  2  2  2  3  2  2  2  2  2  2  2  2  0  0  0
++         0  0  0  0  0  0  0  0  0  0  0  0  0  0  0  0  0
++         0  0  0  0  0  0  0  0  0  0  0  0  0  0  0  0  0
++         0  0  0  0  0  0  0  0  0  0  0  0  0  0  0  0  0
%c G  cc GPS ccc cccc cccc cccc cccc ccccc ccccc ccccc ccccc
%c cc cc ccc ccc cccc cccc cccc cccc ccccc ccccc ccccc ccccc
%f  1.2500000  1.025000000  0.00000000000  0.000000000000000
%f  0.0000000  0.000000000  0.00000000000  0.000000000000000
%i    0    0    0    0      0      0      0      0         0
%i    0    0    0    0      0      0      0      0         0
/* RAPID ORBIT COMBINATION FROM WEIGHTED AVERAGE OF:        
/* cod emr esa gfz jpl ngs sio usn whu                      
/* REFERENCED TO IGS TIME (IGST) AND TO WEIGHTED MEAN POLE: 
/* PCV:IGS14_2233 OL/AL:FES2004  NONE     Y  ORB:CMB CLK:CMB
*  2022 11  9  5 15  0.00000000
PG01  14408.487925  -1831.765198  21940.843803    254.562127  5  1  6  91       
PG02 -13544.717618   6024.304240 -21422.701628   -638.683046  5  5  3  98       
PG03  21354.465914  -9208.171371  12610.684000   -371.602449  6  5  5  84       
PG04  24178.404826   -647.661927 -11092.043529    -89.635482  8  9  6  81       
PG05 -17037.688507  -2468.634484 -20429.933775   -103.599903  7  5  4  86       
PG06  -6060.220781 -25803.690168    850.659574    513.602652  3  6  5  88       
PG07   8277.881560 -17598.130604 -17441.808226    289.595038  6  5  5  80       
PG08  26082.947781   5955.683513    626.254019    -92.918801  4  5  4  77       
PG09  16081.636767  -9755.138896 -18850.759382   -271.389825  6  2  4  75       
PG10  -7476.880635  21084.398649  14224.322794    -11.117806  3  4  6  82       
PG11 -12037.435759 -21105.963536 -10767.101353    -36.964538  6 11 10  77       
PG12 -21904.435755   7289.624777  12774.476600   -302.085425  4  5  7  98       
PG13 -22326.196974 -13566.124359  -5490.023803    421.285030  6  5  7  95       
PG14  10019.292770 -21249.828679  12285.407437    -85.419592  7 13  8  97       
PG15 -26503.965022  -3283.701222    267.601200    -13.960958  5  7  6 107       
PG16  13120.690964   8596.960388 -21767.727616   -526.883470  7  6  3  90       
PG17   2370.459018 -15038.403849  22202.237332    676.282015  7  7  4 100       
PG18  -7046.478039  19280.231030 -16775.651222    -15.259576  7 13  6  96       
PG19  -9952.638107 -16850.061549  17845.811571    234.912028  6  7  5  87       
PG20  -8010.051469 -14516.133609 -20777.211520    471.615380  3  6  2  84       
PG21  17219.572913   7248.445083  19760.031408    156.431184  4  4  4  68       
PG22  12484.127273  16941.862562  16731.996730    361.116518  4  7  3  66       
PG23 -15784.064543  20840.902778   4239.773247     -1.107366  7 11  8  83       
PG24 -16677.846818  -2074.412199  20315.085498     66.635117  4  7  5  86       
PG25 -20103.752222  16652.405461   3702.889906    390.786996  6  6  6  96       
PG26   4529.022906  16979.837737 -19917.257603    235.224179  6  6  4 114       
PG27  21132.701654  12970.210712 -10273.943766    182.000325  8  6  6  94       
PG29 -18086.811323   6682.014912 -18343.791312   -565.885966     6  6 118       
PG30    311.892080 -24941.849839  -8655.643150   -536.859727  5  3  4  73       
PG31   6751.550219  25413.654030   -883.179768   -199.595539  4  8  6  91       
PG32   1931.548406  15981.478034  21306.371531   -290.184381  6  7  6  65       
*  2022 11  9  5 30  0.00000000
PG01  15092.811943    622.009642  21580.240978    254.556979  5  3  6  67       
PG02 -14468.342637   3613.216383 -21347.374066   -638.681294  5  3  3  91       
PG03  20390.199551  -7929.819765  14862.339662   -371.604800  6  5  5  84       
PG04  25202.154496   -141.254895  -8548.111172    -89.629551  8  9  6  94       
PG05 -15555.428508  -4291.144817 -21289.372434   -103.601286  7  6  4  75       
PG06  -5815.208356 -25608.847586   3749.517967    513.611264  3  7  5 106       
PG07   9070.524442 -15560.980321 -18931.241966    289.590986  6  6  5  80       
PG08  25953.056283   6159.307324  -2206.730710    -92.920807  6  5  4  82       
PG09  18058.260335  -9181.462676 -17280.743375   -271.384813  6  3  4  65       
PG10  -8624.553377  22036.910629  11888.773758    -11.118778  2  3  6  92       
PG11 -12081.937324 -22210.757382  -8191.181680    -36.969688  6 11 10  78       
PG12 -20837.225312   6039.986916  14984.383439   -302.089206  5  5  7 103       
PG13 -21544.883504 -13484.328295  -8207.304579    421.291165  6  6  6  87       
PG14  11098.569592 -21965.828596   9845.649825    -85.415222  5 13  8 104       
PG15 -26392.834727  -3591.252278  -2506.862304    -13.958250  5  7  6 105       
PG16  11299.143732  10222.406076 -22048.063831   -526.883472  8  4  3  86       
PG17   4714.133170 -14338.024693  22299.591483    676.284631  7  7  5 100       
PG18  -7722.867940  17372.221487 -18487.969207    -15.272065  6 12  7  82       
PG19  -7880.433268 -16231.194549  19348.081208    234.916578  6  8  4  91       
PG20  -6636.966024 -16398.159289 -19861.524427    471.612581  4  6  2  71       
PG21  17893.393362   9178.084796  18325.285634    156.430508  4  4  5  46       
PG22  10606.135136  16469.560225  18439.649699    361.122855  4  7  3  70       
PG23 -16174.359882  20926.506831   1379.347650     -1.107220  6 11  9  81       
PG24 -17439.342776  -4285.135487  19360.367677     66.620995  5  7  4  82       
PG25 -19894.114857  16000.086290   6482.955886    390.790331  7  6  6 100       
PG26   2998.745387  18580.862390 -18706.023494    235.225194  6  7  4 105       
PG27  19858.205417  12840.467864 -12705.005565    181.992996  8  5  6  98       
PG29 -19942.032812   5967.576960 -16585.703345   -565.888605     5  6 113       
PG30    926.474325 -23914.606763 -11151.394208   -536.859550  5  3  5  76       
PG31   6432.747980  25417.722621   1987.562302   -199.596398  3  8  7 111       
PG32   -445.095290  15474.065868  21744.743480   -290.195558  6  7  6  68       
*  2022 11  9  5 45  0.00000000
PG01  15891.145285   2970.063723  20839.022656    254.551805  5  3  6  76       
PG02 -15501.560026   1280.253765 -20882.362589   -638.679821  5  4  3  87       
PG03  19341.450479  -6414.921881  16854.981215   -371.607127  6  3  5  81       
PG04  25961.584214    249.769502  -5857.921775    -89.623654  8  9  5 102       
PG05 -14125.269034  -6250.862415 -21788.749796   -103.602492  7  6  4  95       
PG06  -5449.773400 -25121.342030   6583.609492    513.619852  3  6  5  85       
PG07  10012.494106 -13423.266929 -20078.635167    289.586772  6  7  5  76       
PG08  25521.852678   6322.578063  -5002.598571    -92.922751  6  5  5 100       
PG09  19870.545498  -8739.309711 -15415.595491   -271.379792  6  4  3  60       
PG10  -9544.205951  22837.052427   9346.846673    -11.120245  2  3  6 101       
PG11 -12096.772513 -23025.232125  -5474.560808    -36.974740  7 11  9  97       
PG12 -19671.870738   4563.243106  16930.705099   -302.093095  5  6  7 112       
PG13 -20477.170801 -13353.562609 -10785.679318    421.297256  6  6  6 110       
PG14  11949.548916 -22522.400084   7235.424480    -85.410867  3 13  8 110       
PG15 -25989.879889  -3887.511423  -5239.143745    -13.955608  5  7  5 109       
PG16   9557.433243  11954.582043 -21959.129391   -526.883433  8  4  3  88       
PG17   7083.379876 -13772.016196  22028.683776    676.287999  6  7  4  92       
PG18  -8557.932014  15337.573570 -19880.660883    -15.284573  7 12  8  83       
PG19  -5628.101863 -15683.421350  20513.453761    234.921116  6  8  4  89       
PG20  -5423.263230 -18239.426950 -18605.498332    471.609953  4  7  3  80       
PG21  18597.947002  10909.483890  16597.095876    156.430004  4  3  5  33       
PG22   8539.564894  16054.286240  19841.931675    361.129203  5  7  3  69       
PG23 -16357.376485  20776.104881  -1505.024461     -1.107169  5 11  9  70       
PG24 -18250.235861  -6335.879828  18066.664321     66.606880  4  7  4  64       
PG25 -19520.905661  15095.642472   9148.606495    390.793706  7  6  6  98       
PG26   1636.682389  20130.902202 -17172.029940    235.226311  6  8  4 105       
PG27  18322.334772  12736.368753 -14924.278574    181.985642  8  5  6 108       
PG29 -21625.234363   5409.189488 -14543.964195   -565.891046     4  6 109       
PG30   1678.724437 -22660.611831 -13451.786378   -536.859338  5  3  6  76       
PG31   6008.646498  25128.556772   4823.034727   -199.597731  2  8  7 107       
PG32  -2874.908312  15086.472788  21814.473113   -290.206780  5  7  7  85       
EOF
